[
    {
        "Altitude(m)": 612513.8958313911,
        "Argument of Periapsis(deg)": 0.0,
        "Eccentricity": 0.0,
        "Inclination(deg)": 60.0,
        "Latitude(deg)": -28.135847495369646,
        "Longitude(deg)": 107.91310609945705,
        "Mean Anomaly(deg)": 212.7273,
        "RAAN(deg)": 10.0,
        "Satellite Name": "Test1 57",
        "Satellite Number": 57,
        "Semi-Major Axis(m)": 6980739.136638005,
        "Time(s)": 0
    },
    {
        "Altitude(m)": 612708.2634170564,
        "Argument of Periapsis(deg)": 0.00010418945913296404,
        "Eccentricity": 0.0,
        "Inclination(deg)": 60.0,
        "Latitude(deg)": -28.64758677069695,
        "Longitude(deg)": 108.27033589593532,
        "Mean Anomaly(deg)": 213.34740614546183,
        "RAAN(deg)": 9.999579950860259,
        "Satellite Name": "Test1 57",
        "Satellite Number": 57,
        "Semi-Major Axis(m)": 6980739.136638005,
        "Time(s)": 10
    }
]